{
  "links" : {
    "next" : "https://api.nasa.gov/neo/rest/v1/neo/browse?page=9&size=20&api_key=jqAGvNAwUIBu4fl9FSOjdm3V4F7hIglRzI6pdX9d",
    "prev" : "https://api.nasa.gov/neo/rest/v1/neo/browse?page=7&size=20&api_key=jqAGvNAwUIBu4fl9FSOjdm3V4F7hIglRzI6pdX9d",
    "self" : "https://api.nasa.gov/neo/rest/v1/neo/browse?page=8&size=20&api_key=jqAGvNAwUIBu4fl9FSOjdm3V4F7hIglRzI6pdX9d"
  },
  "page" : {
    "size" : 20,
    "total_elements" : 20750,
    "total_pages" : 1038,
    "number" : 8
  },
  "near_earth_objects" : [ {
    "links" : {
      "self" : "https://api.nasa.gov/neo/rest/v1/neo/3092483?api_key=jqAGvNAwUIBu4fl9FSOjdm3V4F7hIglRzI6pdX9d"
    },
    "neo_reference_id" : "3092483",
    "name" : "(2001 VM5)",
    "designation" : "2001 VM5",
    "nasa_jpl_url" : "http://ssd.jpl.nasa.gov/sbdb.cgi?sstr=3092483",
    "absolute_magnitude_h" : 25.1,
    "estimated_diameter" : {
      "kilometers" : {
        "estimated_diameter_min" : 0.0253837029,
        "estimated_diameter_max" : 0.0567596853
      },
      "meters" : {
        "estimated_diameter_min" : 25.3837029364,
        "estimated_diameter_max" : 56.7596852866
      },
      "miles" : {
        "estimated_diameter_min" : 0.0157726969,
        "estimated_diameter_max" : 0.0352688224
      },
      "feet" : {
        "estimated_diameter_min" : 83.279867942,
        "estimated_diameter_max" : 186.2194458756
      }
    },
    "is_potentially_hazardous_asteroid" : false,
    "close_approach_data" : [ {
      "close_approach_date" : "2001-11-08",
      "epoch_date_close_approach" : 1005206400000,
      "relative_velocity" : {
        "kilometers_per_second" : "8.3261926404",
        "kilometers_per_hour" : "29974.2935053635",
        "miles_per_hour" : "18624.8603172632"
      },
      "miss_distance" : {
        "astronomical" : "0.014894508",
        "lunar" : "5.7939634323",
        "kilometers" : "2228186.75",
        "miles" : "1384531"
      },
      "orbiting_body" : "Earth"
    } ],
    "orbital_data" : {
      "orbit_id" : "8",
      "orbit_determination_date" : "2017-04-06 09:15:51",
      "first_observation_date" : "2001-11-11",
      "last_observation_date" : "2001-11-16",
      "data_arc_in_days" : 5,
      "observations_used" : 13,
      "orbit_uncertainty" : "9",
      "minimum_orbit_intersection" : ".014091",
      "jupiter_tisserand_invariant" : "3.253",
      "epoch_osculation" : "2452226.5",
      "eccentricity" : ".5862116022744094",
      "semi_major_axis" : "2.415243626960037",
      "inclination" : "5.851546250865335",
      "ascending_node_longitude" : "231.7457685695216",
      "orbital_period" : "1371.007542709042",
      "perihelion_distance" : ".9993997905167378",
      "perihelion_argument" : "168.6055103773296",
      "aphelion_distance" : "3.831087463403337",
      "perihelion_time" : "2452217.171041170344",
      "mean_anomaly" : "2.449603721391701",
      "mean_motion" : ".262580612276325",
      "equinox" : "J2000",
      "orbit_class" : {
        "orbit_class_type" : "APO",
        "orbit_class_range" : "a (semi-major axis) > 1.0 AU; q (perihelion) < 1.017 AU",
        "orbit_class_description" : "Near-Earth asteroid orbits which cross the Earth’s orbit similar to that of 1862 Apollo"
      }
    },
    "is_sentry_object" : false
  }, {
    "links" : {
      "self" : "https://api.nasa.gov/neo/rest/v1/neo/3092484?api_key=jqAGvNAwUIBu4fl9FSOjdm3V4F7hIglRzI6pdX9d"
    },
    "neo_reference_id" : "3092484",
    "name" : "(2001 VG16)",
    "designation" : "2001 VG16",
    "nasa_jpl_url" : "http://ssd.jpl.nasa.gov/sbdb.cgi?sstr=3092484",
    "absolute_magnitude_h" : 25.3,
    "estimated_diameter" : {
      "kilometers" : {
        "estimated_diameter_min" : 0.0231502122,
        "estimated_diameter_max" : 0.0517654482
      },
      "meters" : {
        "estimated_diameter_min" : 23.150212221,
        "estimated_diameter_max" : 51.7654482198
      },
      "miles" : {
        "estimated_diameter_min" : 0.0143848705,
        "estimated_diameter_max" : 0.0321655483
      },
      "feet" : {
        "estimated_diameter_min" : 75.9521422633,
        "estimated_diameter_max" : 169.8341531374
      }
    },
    "is_potentially_hazardous_asteroid" : false,
    "close_approach_data" : [ {
      "close_approach_date" : "2001-11-13",
      "epoch_date_close_approach" : 1005638400000,
      "relative_velocity" : {
        "kilometers_per_second" : "8.7027581453",
        "kilometers_per_hour" : "31329.9293229901",
        "miles_per_hour" : "19467.1996951657"
      },
      "miss_distance" : {
        "astronomical" : "0.0169803961",
        "lunar" : "6.6053743362",
        "kilometers" : "2540231.25",
        "miles" : "1578426.5"
      },
      "orbiting_body" : "Earth"
    }, {
      "close_approach_date" : "2166-10-10",
      "epoch_date_close_approach" : 6209593200000,
      "relative_velocity" : {
        "kilometers_per_second" : "16.4555572064",
        "kilometers_per_hour" : "59240.0059429306",
        "miles_per_hour" : "36809.4359149282"
      },
      "miss_distance" : {
        "astronomical" : "0.3309139046",
        "lunar" : "128.7255096436",
        "kilometers" : "49504016",
        "miles" : "30760370"
      },
      "orbiting_body" : "Earth"
    } ],
    "orbital_data" : {
      "orbit_id" : "9",
      "orbit_determination_date" : "2017-04-06 09:15:51",
      "first_observation_date" : "2001-11-12",
      "last_observation_date" : "2001-11-16",
      "data_arc_in_days" : 4,
      "observations_used" : 22,
      "orbit_uncertainty" : "8",
      "minimum_orbit_intersection" : ".0158303",
      "jupiter_tisserand_invariant" : "3.984",
      "epoch_osculation" : "2452227.5",
      "eccentricity" : ".4329775029974463",
      "semi_major_axis" : "1.759226415576244",
      "inclination" : "11.68018211859446",
      "ascending_node_longitude" : "48.61564284939086",
      "orbital_period" : "852.2775193873999",
      "perihelion_distance" : ".9975209549528944",
      "perihelion_argument" : "14.0249676086806",
      "aphelion_distance" : "2.520931876199595",
      "perihelion_time" : "2452236.912335212011",
      "mean_anomaly" : "356.0242519610754",
      "mean_motion" : ".4223976249646486",
      "equinox" : "J2000",
      "orbit_class" : {
        "orbit_class_type" : "APO",
        "orbit_class_range" : "a (semi-major axis) > 1.0 AU; q (perihelion) < 1.017 AU",
        "orbit_class_description" : "Near-Earth asteroid orbits which cross the Earth’s orbit similar to that of 1862 Apollo"
      }
    },
    "is_sentry_object" : false
  }, {
    "links" : {
      "self" : "https://api.nasa.gov/neo/rest/v1/neo/3092493?api_key=jqAGvNAwUIBu4fl9FSOjdm3V4F7hIglRzI6pdX9d"
    },
    "neo_reference_id" : "3092493",
    "name" : "(2001 VE76)",
    "designation" : "2001 VE76",
    "nasa_jpl_url" : "http://ssd.jpl.nasa.gov/sbdb.cgi?sstr=3092493",
    "absolute_magnitude_h" : 23.6,
    "estimated_diameter" : {
      "kilometers" : {
        "estimated_diameter_min" : 0.0506471459,
        "estimated_diameter_max" : 0.1132504611
      },
      "meters" : {
        "estimated_diameter_min" : 50.6471458835,
        "estimated_diameter_max" : 113.2504610618
      },
      "miles" : {
        "estimated_diameter_min" : 0.0314706677,
        "estimated_diameter_max" : 0.0703705522
      },
      "feet" : {
        "estimated_diameter_min" : 166.1651821003,
        "estimated_diameter_max" : 371.5566426699
      }
    },
    "is_potentially_hazardous_asteroid" : false,
    "close_approach_data" : [ {
      "close_approach_date" : "2001-11-24",
      "epoch_date_close_approach" : 1006588800000,
      "relative_velocity" : {
        "kilometers_per_second" : "12.3164112313",
        "kilometers_per_hour" : "44339.0804326969",
        "miles_per_hour" : "27550.5802833055"
      },
      "miss_distance" : {
        "astronomical" : "0.0389541134",
        "lunar" : "15.1531496048",
        "kilometers" : "5827452.5",
        "miles" : "3621011"
      },
      "orbiting_body" : "Earth"
    } ],
    "orbital_data" : {
      "orbit_id" : "9",
      "orbit_determination_date" : "2017-04-06 09:15:50",
      "first_observation_date" : "2001-11-15",
      "last_observation_date" : "2001-11-21",
      "data_arc_in_days" : 6,
      "observations_used" : 22,
      "orbit_uncertainty" : "9",
      "minimum_orbit_intersection" : ".0328338",
      "jupiter_tisserand_invariant" : "3.974",
      "epoch_osculation" : "2452230.5",
      "eccentricity" : ".5147869458403604",
      "semi_major_axis" : "1.743835476389456",
      "inclination" : "4.172161133638945",
      "ascending_node_longitude" : "217.5384604081619",
      "orbital_period" : "841.1175406744281",
      "perihelion_distance" : ".8461317374508578",
      "perihelion_argument" : "262.2231285333527",
      "aphelion_distance" : "2.641539215328053",
      "perihelion_time" : "2452278.441858618848",
      "mean_anomaly" : "339.4807880371314",
      "mean_motion" : ".4280020123125044",
      "equinox" : "J2000",
      "orbit_class" : {
        "orbit_class_type" : "APO",
        "orbit_class_range" : "a (semi-major axis) > 1.0 AU; q (perihelion) < 1.017 AU",
        "orbit_class_description" : "Near-Earth asteroid orbits which cross the Earth’s orbit similar to that of 1862 Apollo"
      }
    },
    "is_sentry_object" : false
  } ]
}